IRIDIUM 166             
1 43570U 18061B   24059.49137144  .00000005  00000+0 -54122-5 0  9992
2 43570  86.3942  47.6417 0002176  98.2284 261.9158 14.34217558293041
IRIDIUM 158             
1 43571U 18061C   24059.45965663  .00000097  00000+0  27697-4 0  9990
2 43571  86.3945  47.6638 0002446  90.4750 269.6726 14.34218714293009
IRIDIUM 165             
1 43572U 18061D   24059.48502894  .00000032  00000+0  43187-5 0  9999
2 43572  86.3948  47.6836 0002507  91.3480 268.8003 14.34217967293032
IRIDIUM 155             
1 43573U 18061E   24059.51674078 -.00000026  00000+0 -16218-4 0  9997
2 43573  86.3939  47.5813 0001932  91.8609 268.2808 14.34218480293001
IRIDIUM 154             
1 43574U 18061F   24059.00933453 -.00000034  00000+0 -19283-4 0  9991
2 43574  86.3943  47.8858 0002170  82.3881 277.7561 14.34217203292980
IRIDIUM 163             
1 43575U 18061G   24059.68799059  .00000085  00000+0  23356-4 0  9998
2 43575  86.3946  47.5432 0002169  85.9672 274.1772 14.34218236293055
IRIDIUM 156             
1 43576U 18061H   24059.45331491  .00000043  00000+0  84646-5 0  9990
2 43576  86.3946  47.6475 0002339  93.2970 266.8494 14.34217967293011
IRIDIUM 164             
1 43577U 18061J   24059.50405730  .00000040  00000+0  71779-5 0  9995
2 43577  86.3946  47.6537 0002458  87.7939 272.3538 14.34217729293068
